{
  "type": "FeatureCollection",
  "features": [
    {
      "type": "Feature",
      "properties": {
        "norad_id": 40730,
        "name": "GPS BIIF-10 (PRN 08)",
        "group": "gps-ops",
        "lat": -19.360745682554743,
        "lon": -99.6813817434413,
        "alt_km": 19997.00653403604,
        "timestamp": "2025-12-06T05:40:09.500395+00:00",
        "meta_object_name": "GPS BIIF-10 (PRN 08)",
        "meta_object_id": "2015-033A",
        "meta_epoch": "2025-12-04T06:35:41.280576",
        "meta_mean_motion": 2.0056586,
        "meta_eccentricity": 0.01104506,
        "meta_inclination": 54.1381,
        "meta_ra_of_asc_node": 275.1212,
        "meta_arg_of_pericenter": 26.6019,
        "meta_mean_anomaly": 333.9621,
        "meta_ephemeris_type": 0,
        "meta_classification_type": "U",
        "meta_norad_cat_id": 40730,
        "meta_element_set_no": 999,
        "meta_rev_at_epoch": 7608,
        "meta_bstar": 0,
        "meta_mean_motion_dot": -3.2e-07,
        "meta_mean_motion_ddot": 0,
        "tle_line1": "1 40730U 15033A   25338.27478334 -.00000032  00000+0  00000+0 0  9999",
        "tle_line2": "2 40730  54.1381 275.1212 0110450  26.6019 333.9621  2.00565860 76083"
      },
      "geometry": {
        "type": "Point",
        "coordinates": [
          -99.6813817434413,
          -19.360745682554743
        ]
      }
    },
    {
      "type": "Feature",
      "properties": {
        "norad_id": 41019,
        "name": "GPS BIIF-11 (PRN 10)",
        "group": "gps-ops",
        "lat": -50.10627404445026,
        "lon": -13.143171358528178,
        "alt_km": 20055.241460917838,
        "timestamp": "2025-12-06T05:40:09.500424+00:00",
        "meta_object_name": "GPS BIIF-11 (PRN 10)",
        "meta_object_id": "2015-062A",
        "meta_epoch": "2025-12-03T20:03:13.853664",
        "meta_mean_motion": 2.0056693,
        "meta_eccentricity": 0.0110571,
        "meta_inclination": 56.8259,
        "meta_ra_of_asc_node": 38.3468,
        "meta_arg_of_pericenter": 229.69,
        "meta_mean_anomaly": 129.3913,
        "meta_ephemeris_type": 0,
        "meta_classification_type": "U",
        "meta_norad_cat_id": 41019,
        "meta_element_set_no": 999,
        "meta_rev_at_epoch": 7391,
        "meta_bstar": 0,
        "meta_mean_motion_dot": -6.5e-07,
        "meta_mean_motion_ddot": 0,
        "tle_line1": "1 41019U 15062A   25337.83557701 -.00000065  00000+0  00000+0 0  9995",
        "tle_line2": "2 41019  56.8259  38.3468 0110571 229.6900 129.3913  2.00566930 73916"
      },
      "geometry": {
        "type": "Point",
        "coordinates": [
          -13.143171358528178,
          -50.10627404445026
        ]
      }
    },
    {
      "type": "Feature",
      "properties": {
        "norad_id": 41328,
        "name": "GPS BIIF-12 (PRN 32)",
        "group": "gps-ops",
        "lat": -41.01469686073234,
        "lon": -46.048749221961344,
        "alt_km": 19947.92966270153,
        "timestamp": "2025-12-06T05:40:09.500437+00:00",
        "meta_object_name": "GPS BIIF-12 (PRN 32)",
        "meta_object_id": "2016-007A",
        "meta_epoch": "2025-12-03T22:01:44.177088",
        "meta_mean_motion": 2.00561076,
        "meta_eccentricity": 0.0091739,
        "meta_inclination": 55.4011,
        "meta_ra_of_asc_node": 97.2072,
        "meta_arg_of_pericenter": 243.359,
        "meta_mean_anomaly": 115.6713,
        "meta_ephemeris_type": 0,
        "meta_classification_type": "U",
        "meta_norad_cat_id": 41328,
        "meta_element_set_no": 999,
        "meta_rev_at_epoch": 7192,
        "meta_bstar": 0,
        "meta_mean_motion_dot": -7e-08,
        "meta_mean_motion_ddot": 0,
        "tle_line1": "1 41328U 16007A   25337.91787242 -.00000007  00000+0  00000+0 0  9998",
        "tle_line2": "2 41328  55.4011  97.2072 0091739 243.3590 115.6713  2.00561076 71928"
      },
      "geometry": {
        "type": "Point",
        "coordinates": [
          -46.048749221961344,
          -41.01469686073234
        ]
      }
    },
    {
      "type": "Feature",
      "properties": {
        "norad_id": 43873,
        "name": "GPS BIII-1  (PRN 04)",
        "group": "gps-ops",
        "lat": 40.89913643892804,
        "lon": -116.62569449393561,
        "alt_km": 20139.481179605074,
        "timestamp": "2025-12-06T05:40:09.500456+00:00",
        "meta_object_name": "GPS BIII-1  (PRN 04)",
        "meta_object_id": "2018-109A",
        "meta_epoch": "2025-12-04T13:52:59.167776",
        "meta_mean_motion": 2.00553165,
        "meta_eccentricity": 0.0037177,
        "meta_inclination": 55.5628,
        "meta_ra_of_asc_node": 99.8692,
        "meta_arg_of_pericenter": 194.6577,
        "meta_mean_anomaly": 176.2017,
        "meta_ephemeris_type": 0,
        "meta_classification_type": "U",
        "meta_norad_cat_id": 43873,
        "meta_element_set_no": 999,
        "meta_rev_at_epoch": 5117,
        "meta_bstar": 0,
        "meta_mean_motion_dot": -5e-08,
        "meta_mean_motion_ddot": 0,
        "tle_line1": "1 43873U 18109A   25338.57846259 -.00000005  00000+0  00000+0 0  9995",
        "tle_line2": "2 43873  55.5628  99.8692 0037177 194.6577 176.2017  2.00553165 51170"
      },
      "geometry": {
        "type": "Point",
        "coordinates": [
          -116.62569449393561,
          40.89913643892804
        ]
      }
    },
    {
      "type": "Feature",
      "properties": {
        "norad_id": 44506,
        "name": "GPS BIII-2  (PRN 18)",
        "group": "gps-ops",
        "lat": 19.953421732974856,
        "lon": -6.857395771671265,
        "alt_km": 20332.156203572144,
        "timestamp": "2025-12-06T05:40:09.500468+00:00",
        "meta_object_name": "GPS BIII-2  (PRN 18)",
        "meta_object_id": "2019-056A",
        "meta_epoch": "2025-12-02T10:49:28.764768",
        "meta_mean_motion": 2.00565569,
        "meta_eccentricity": 0.00578163,
        "meta_inclination": 55.7251,
        "meta_ra_of_asc_node": 338.9617,
        "meta_arg_of_pericenter": 198.402,
        "meta_mean_anomaly": 332.9603,
        "meta_ephemeris_type": 0,
        "meta_classification_type": "U",
        "meta_norad_cat_id": 44506,
        "meta_element_set_no": 999,
        "meta_rev_at_epoch": 4612,
        "meta_bstar": 0,
        "meta_mean_motion_dot": -6.1e-07,
        "meta_mean_motion_ddot": 0,
        "tle_line1": "1 44506U 19056A   25336.45102737 -.00000061  00000+0  00000+0 0  9994",
        "tle_line2": "2 44506  55.7251 338.9617 0057816 198.4020 332.9603  2.00565569 46121"
      },
      "geometry": {
        "type": "Point",
        "coordinates": [
          -6.857395771671265,
          19.953421732974856
        ]
      }
    },
    {
      "type": "Feature",
      "properties": {
        "norad_id": 45854,
        "name": "GPS BIII-3  (PRN 23)",
        "group": "gps-ops",
        "lat": -25.31576689012016,
        "lon": 18.249089841287347,
        "alt_km": 20279.357693578328,
        "timestamp": "2025-12-06T05:40:09.500480+00:00",
        "meta_object_name": "GPS BIII-3  (PRN 23)",
        "meta_object_id": "2020-041A",
        "meta_epoch": "2025-12-05T00:44:21.679872",
        "meta_mean_motion": 2.00561656,
        "meta_eccentricity": 0.00602963,
        "meta_inclination": 56.5415,
        "meta_ra_of_asc_node": 36.4861,
        "meta_arg_of_pericenter": 203.0901,
        "meta_mean_anomaly": 335.2174,
        "meta_ephemeris_type": 0,
        "meta_classification_type": "U",
        "meta_norad_cat_id": 45854,
        "meta_element_set_no": 999,
        "meta_rev_at_epoch": 4014,
        "meta_bstar": 0,
        "meta_mean_motion_dot": -6.7e-07,
        "meta_mean_motion_ddot": 0,
        "tle_line1": "1 45854U 20041A   25339.03080648 -.00000067  00000+0  00000+0 0  9996",
        "tle_line2": "2 45854  56.5415  36.4861 0060296 203.0901 335.2174  2.00561656 40145"
      },
      "geometry": {
        "type": "Point",
        "coordinates": [
          18.249089841287347,
          -25.31576689012016
        ]
      }
    },
    {
      "type": "Feature",
      "properties": {
        "norad_id": 46826,
        "name": "GPS BIII-4  (PRN 14)",
        "group": "gps-ops",
        "lat": -44.42312305550827,
        "lon": 173.25614413863258,
        "alt_km": 20203.71135145915,
        "timestamp": "2025-12-06T05:40:09.500492+00:00",
        "meta_object_name": "GPS BIII-4  (PRN 14)",
        "meta_object_id": "2020-078A",
        "meta_epoch": "2025-11-12T03:01:29.190720",
        "meta_mean_motion": 2.00567032,
        "meta_eccentricity": 0.0063911,
        "meta_inclination": 54.0223,
        "meta_ra_of_asc_node": 219.5836,
        "meta_arg_of_pericenter": 203.4986,
        "meta_mean_anomaly": 326.7754,
        "meta_ephemeris_type": 0,
        "meta_classification_type": "U",
        "meta_norad_cat_id": 46826,
        "meta_element_set_no": 999,
        "meta_rev_at_epoch": 3715,
        "meta_bstar": 0,
        "meta_mean_motion_dot": -3.4e-07,
        "meta_mean_motion_ddot": 0,
        "tle_line1": "1 46826U 20078A   25316.12603230 -.00000034  00000+0  00000+0 0  9993",
        "tle_line2": "2 46826  54.0223 219.5836 0063911 203.4986 326.7754  2.00567032 37155"
      },
      "geometry": {
        "type": "Point",
        "coordinates": [
          173.25614413863258,
          -44.42312305550827
        ]
      }
    }
  ]
}